ONEWEB-0199             
1 48234U 21031AA  24183.14533257  .00000275  00000+0  70648-3 0  9997
2 48234  87.8958  72.1489 0002077  79.1633 280.9730 13.14502343154199
ONEWEB-0203             
1 48235U 21031AB  24183.44028265  .00000199  00000+0  50222-3 0  9990
2 48235  87.8958  72.0916 0002279  70.7499 289.3877 13.14506128154241
ONEWEB-0197             
1 48236U 21031AC  24183.18734305 -.00000416  00000+0 -11557-2 0  9992
2 48236  87.8958  72.1506 0001902  90.3453 269.7895 13.14503110154125
ONEWEB-0194             
1 48237U 21031AD  24183.16594417  .00000019  00000+0  15795-4 0  9996
2 48237  87.8961  72.1480 0002148  76.4568 283.6801 13.14501647154299
ONEWEB-0193             
1 48238U 21031AE  24183.41014597 -.00000245  00000+0 -69426-3 0  9993
2 48238  87.8959  72.1073 0001920  74.0965 286.0376 13.14502015154279
ONEWEB-0191             
1 48239U 21031AF  24183.42124468 -.00000427  00000+0 -11851-2 0  9994
2 48239  87.8955  72.0882 0001888  75.8033 284.3306 13.14502843154139
ONEWEB-0195             
1 48240U 21031AG  24182.94156302 -.00001057  00000+0 -28873-2 0  9996
2 48240  87.8959  72.1833 0001663  68.7238 291.4070 13.14492526154055
ONEWEB-0201             
1 48241U 21031AH  24183.23491792  .00000137  00000+0  33586-3 0  9999
2 48241  87.8960  72.1599 0001751  75.4348 284.6976 13.14505166154326
